DMSP 5D-3 F16 (USA 172) 
1 28054U 03048A   26114.83278206  .00000044  00000+0  46914-4 0  9999
2 28054  98.9933 138.2985 0006046 303.0542 136.5166 14.14476522161946
METEOSAT-9 (MSG-2)      
1 28912U 05049B   26113.93617780  .00000114  00000+0  00000+0 0  9998
2 28912   9.2420  54.6903 0000372 346.0252 193.9141  1.00273321  6454
DMSP 5D-3 F17 (USA 191) 
1 29522U 06050A   26114.85312863  .00000077  00000+0  61935-4 0  9992
2 29522  98.7397 122.5121 0009558 202.1373 157.9389 14.14982026  4883
FENGYUN 3A              
1 32958U 08026A   26114.83200567  .00000062  00000+0  50002-4 0  9996
2 32958  98.6853  56.6729 0007616 284.2762  75.7568 14.19559285927830
GOES 14                 
1 35491U 09033A   26114.81674293 -.00000053  00000+0  00000+0 0  9998
2 35491   1.5541  83.6478 0001671 309.2066 285.7085  1.00116078  6057
DMSP 5D-3 F18 (USA 210) 
1 35951U 09057A   26114.89140627  .00000260  00000+0  15767-3 0  9991
2 35951  98.9015  95.7858 0011964  46.6141 313.6027 14.14865122852058
EWS-G2 (GOES 15)        
1 36411U 10008A   26114.74366110  .00000009  00000+0  00000+0 0  9993
2 36411   1.1369  83.8170 0003811  24.0063  75.9198  1.00272080 59106
COMS 1                  
1 36744U 10032A   26114.42420843 -.00000356  00000+0  00000+0 0  9994
2 36744   4.6683  76.0744 0000981 317.3684  99.8585  1.00269967 50550
FENGYUN 3B              
1 37214U 10059A   26114.84549536  .00000109  00000+0  79827-4 0  9996
2 37214  98.9671 160.6213 0021732 340.7811 107.0650 14.14828622799885
SUOMI NPP               
1 37849U 11061A   26114.84139431  .00000053  00000+0  45999-4 0  9994
2 37849  98.7923  56.0915 0002724 105.8381 254.3096 14.19505405750878
METEOSAT-10 (MSG-3)     
1 38552U 12035B   26114.71152078 -.00000018  00000+0  00000+0 0  9997
2 38552   4.5476  61.2440 0002051 309.4707  98.3792  1.00267381 50322
METOP-B                 
1 38771U 12049A   26114.83283616  .00000073  00000+0  53380-4 0  9995
2 38771  98.6551 167.3846 0003353 127.2794 232.8689 14.21432602705682
INSAT-3D                
1 39216U 13038B   26114.80842288 -.00000352  00000+0  00000+0 0  9999
2 39216   1.7898  83.1762 0001495 276.9240 273.2859  1.00272680 46543
FENGYUN 3C              
1 39260U 13052A   26114.89701550  .00000080  00000+0  61680-4 0  9992
2 39260  98.4955  91.2301 0014710 172.2010 187.9396 14.15741993651025
METEOR-M 2              
1 40069U 14037A   26114.86002332  .00000065  00000+0  48816-4 0  9993
2 40069  98.5089  92.4983 0005469 179.9274 180.1906 14.21445268611749
HIMAWARI-8              
1 40267U 14060A   26114.73935389 -.00000290  00000+0  00000+0 0  9991
2 40267   0.0411  73.0349 0000768 301.4712 245.0953  1.00271715 42224
FENGYUN 2G              
1 40367U 14090A   26114.87383943 -.00000314  00000+0  00000+0 0  9990
2 40367   5.5064  73.4420 0003004 146.4299  47.3941  1.00273114 41466
METEOSAT-11 (MSG-4)     
1 40732U 15034A   26114.78468075  .00000051  00000+0  00000+0 0  9992
2 40732   3.0682  71.3865 0001614 343.7905  89.7515  1.00263489  6688
ELEKTRO-L 2             
1 41105U 15074A   26114.70857410 -.00000128  00000+0  00000+0 0  9994
2 41105   6.5621  71.1649 0002312 253.1370 129.0159  1.00270502 37970
INSAT-3DR               
1 41752U 16054A   26114.76989043 -.00000091  00000+0  00000+0 0  9994
2 41752   0.1096  86.0791 0011760 195.1926 282.6765  1.00271110 35283
HIMAWARI-9              
1 41836U 16064A   26114.73935389 -.00000289  00000+0  00000+0 0  9998
2 41836   0.0305 142.3773 0000711 257.8565 219.4535  1.00272993 34678
GOES 16                 
1 41866U 16071A   26114.61944081 -.00000105  00000+0  00000+0 0  9992
2 41866   0.2069  85.2245 0001586 245.4895   0.2230  1.00270929 34562
FENGYUN 4A              
1 41882U 16077A   26114.80729622 -.00000370  00000+0  00000+0 0  9993
2 41882   2.1889  80.7978 0008213 141.3034  45.0937  1.00267325 34395
CYGFM05                 
1 41884U 16078A   26114.78141007  .00020561  00000+0  30388-3 0  9997
2 41884  34.9567 253.6010 0007388   5.2273 354.8527 15.54327093520430
CYGFM04                 
1 41885U 16078B   26114.71494634  .00024204  00000+0  30558-3 0  9995
2 41885  34.9322 224.2388 0006199  49.7610 310.3656 15.58539512520647
CYGFM02                 
1 41886U 16078C   26114.67740588  .00027138  00000+0  31304-3 0  9992
2 41886  34.9405 220.3834 0007254  50.7378 309.3990 15.60876694520792
CYGFM01                 
1 41887U 16078D   26114.72790233  .00020812  00000+0  30088-3 0  9991
2 41887  34.9401 255.4241 0007168 358.0424   2.0270 15.54926063520371
CYGFM08                 
1 41888U 16078E   26114.70876095  .00022320  00000+0  29579-3 0  9990
2 41888  34.9430 236.4386 0008252  29.6221 330.4970 15.57247829520626
CYGFM07                 
1 41890U 16078G   26114.67108514  .00021975  00000+0  29053-3 0  9995
2 41890  34.9446 225.0731 0006586  48.2443 311.8844 15.57328860520645
CYGFM03                 
1 41891U 16078H   26114.70613457  .00022297  00000+0  29472-3 0  9990
2 41891  34.9399 226.7976 0005920  34.7811 325.3300 15.57337184520626
FENGYUN 3D              
1 43010U 17072A   26114.86819200 -.00000140  00000+0 -44143-4 0  9999
2 43010  99.0100  88.3386 0001324 156.6488 203.4748 14.19726878437424
NOAA 20 (JPSS-1)        
1 43013U 17073A   26114.85502374  .00000060  00000+0  49183-4 0  9991
2 43013  98.7743  54.7990 0002117  74.4652 285.6758 14.19547188436905
GOES 17                 
1 43226U 18022A   26114.83631262 -.00000196  00000+0  00000+0 0  9990
2 43226   0.8026  86.4188 0000711 267.0964  70.9258  1.00271369 29880
FENGYUN 2H              
1 43491U 18050A   26114.79845618 -.00000141  00000+0  00000+0 0  9992
2 43491   2.8955  79.6664 0001799 159.9050 339.9343  1.00274306 28901
METOP-C                 
1 43689U 18087A   26114.78455064  .00000067  00000+0  50479-4 0  9998
2 43689  98.6682 175.3543 0000921  41.5367 318.5880 14.21511182387240
GEO-KOMPSAT-2A          
1 43823U 18100A   26114.59430736 -.00000358  00000+0  00000+0 0  9996
2 43823   0.0466  69.9486 0001776 353.6269 131.2659  1.00272156 27094
METEOR-M2 2             
1 44387U 19038A   26114.85729795  .00000226  00000+0  11758-3 0  9997
2 44387  98.9137 101.3632 0001677 130.4458 229.6867 14.24350874353703
ARKTIKA-M 1             
1 47719U 21016A   26113.16409645 -.00000101  00000+0  00000+0 0  9997
2 47719  63.2246  65.5569 7266494 269.6808  14.9538  2.00609676 37686
FENGYUN 3E              
1 49008U 21062A   26114.85813050 -.00000071  00000+0 -12768-4 0  9993
2 49008  98.7513 118.8600 0000696 202.6817 157.4328 14.19898522249012
GOES 18                 
1 51850U 22021A   26114.75564730  .00000082  00000+0  00000+0 0  9995
2 51850   0.0487  59.5307 0000337  24.7451 263.5307  1.00271890  6050
NOAA 21 (JPSS-2)        
1 54234U 22150A   26114.81878595  .00000023  00000+0  31760-4 0  9998
2 54234  98.7032  54.5125 0001897  25.2069 334.9200 14.19555183178975
METEOSAT-12 (MTG-I1)    
1 54743U 22170C   26114.78268742 -.00000022  00000+0  00000+0 0  9996
2 54743   0.7219  22.0366 0001149 326.8999 145.3245  1.00268952 12442
TIANMU-1 03             
1 55973U 23039A   26114.79841756  .00013040  00000+0  27164-3 0  9997
2 55973  97.5223 286.7467 0001693 292.8759  67.2311 15.45727332172582
TIANMU-1 04             
1 55974U 23039B   26114.80754954  .00013615  00000+0  27831-3 0  9992
2 55974  97.5156 285.9090 0002272 284.1703  75.9293 15.46269981172596
TIANMU-1 05             
1 55975U 23039C   26114.77681686  .00013054  00000+0  27251-3 0  9993
2 55975  97.5202 286.3587 0001680 335.0995  25.0173 15.45663867172566
TIANMU-1 06             
1 55976U 23039D   26114.80802992  .00013220  00000+0  27096-3 0  9995
2 55976  97.5212 286.9746 0001868 320.7190  39.3923 15.46198079172590
FENGYUN 3G              
1 56232U 23055A   26114.77359987  .00021595  00000+0  35467-3 0  9991
2 56232  49.9926 261.4796 0005914 315.7548  44.2945 15.52279302171706
METEOR-M2 3             
1 57166U 23091A   26114.83957676 -.00000018  00000+0  10815-4 0  9993
2 57166  98.6131 170.8977 0003353 342.1893  17.9168 14.24042031146923
TIANMU-1 07             
1 57399U 23101A   26114.84591266  .00005114  00000+0  18291-3 0  9999
2 57399  97.2641 166.7502 0001654  17.3239 342.8057 15.29230737153492
TIANMU-1 08             
1 57400U 23101B   26114.35541058  .00010281  00000+0  36461-3 0  9992
2 57400  97.2631 166.0474 0002451 330.4860  29.6242 15.29259675153410
TIANMU-1 09             
1 57401U 23101C   26114.86260160  .00005216  00000+0  18632-3 0  9993
2 57401  97.2588 165.9879 0002142  10.7187 349.4099 15.29267378153496
TIANMU-1 10             
1 57402U 23101D   26114.82990802  .00005356  00000+0  19103-3 0  9992
2 57402  97.2668 166.9507 0003021 346.8020  13.3141 15.29301709153482
FENGYUN 3F              
1 57490U 23111A   26114.84320677  .00000023  00000+0  31152-4 0  9994
2 57490  98.6862 185.8397 0000870 112.3269 247.8000 14.19929247141292
ARKTIKA-M 2             
1 58584U 23198A   26110.92958556  .00000217  00000+0  00000+0 0  9990
2 58584  63.2192 160.7194 6953303 267.0904  18.4710  2.00586979 17173
TIANMU-1 11             
1 58645U 23205A   26114.83282094  .00004335  00000+0  16908-3 0  9991
2 58645  97.3492 137.2410 0008917 180.7742 179.3484 15.26427468129380
TIANMU-1 12             
1 58646U 23205B   26114.80162337  .00004636  00000+0  18097-3 0  9991
2 58646  97.3480 136.9777 0007802 161.9822 198.1695 15.26371770129367
TIANMU-1 13             
1 58647U 23205C   26114.83096848  .00004726  00000+0  18411-3 0  9998
2 58647  97.3509 137.2658 0008628 146.1364 214.0427 15.26425507129364
TIANMU-1 14             
1 58648U 23205D   26114.81633106  .00004701  00000+0  18326-3 0  9999
2 58648  97.3443 136.4786 0009231 150.7313 209.4445 15.26397116129363
TIANMU-1 19             
1 58660U 23208A   26114.82855395  .00007213  00000+0  24543-3 0  9992
2 58660  97.4436 230.9105 0006205 136.5679 223.6052 15.30716724129165
TIANMU-1 20             
1 58661U 23208B   26114.84249091  .00007337  00000+0  24051-3 0  9996
2 58661  97.4375 231.5047 0008194 146.0380 214.1388 15.31905041129254
TIANMU-1 21             
1 58662U 23208C   26114.84334171  .00008790  00000+0  26880-3 0  9997
2 58662  97.4434 233.9623 0008211 140.9376 219.2461 15.34067699129388
TIANMU-1 22             
1 58663U 23208D   26114.85882722  .00006921  00000+0  23897-3 0  9998
2 58663  97.4431 230.9194 0004577 152.4962 207.6521 15.30264740129173
TIANMU-1 15             
1 58700U 24004A   26114.87893750  .00004721  00000+0  18395-3 0  9993
2 58700  97.4684 301.0787 0007442 165.1499 194.9959 15.26435674127647
TIANMU-1 16             
1 58701U 24004B   26114.86131446  .00005088  00000+0  19787-3 0  9993
2 58701  97.4628 300.3522 0005849 164.7378 195.4038 15.26474297127643
TIANMU-1 17             
1 58702U 24004C   26114.84520278  .00004719  00000+0  18458-3 0  9991
2 58702  97.4656 300.8045 0005633 169.8130 190.3223 15.26321738127633
TIANMU-1 18             
1 58703U 24004D   26114.82965749  .00004783  00000+0  18643-3 0  9993
2 58703  97.4675 301.0132 0004509 160.5839 199.5572 15.26436365127631
INSAT-3DS               
1 58990U 24033A   26114.79906285 -.00000170  00000+0  00000+0 0  9990
2 58990   0.0868  86.4648 0001881 296.2751 199.8218  1.00270723 46539
METEOR-M2 4             
1 59051U 24039A   26114.86408608  .00000019  00000+0  28417-4 0  9997
2 59051  98.6977  74.8448 0006541 333.1076  26.9762 14.22423706111682
GOES 19                 
1 60133U 24119A   26114.83917263 -.00000263  00000+0  00000+0 0  9993
2 60133   0.0111 120.4697 0000499 321.6128 357.6842  1.00270421  6426
FENGYUN 3H              
1 65815U 25219A   26114.83901890  .00000048  00000+0  43051-4 0  9994
2 65815  98.6738  56.6546 0000798 104.8867 255.2398 14.19943596 29813
